COSMOS 2219             
1 22219U 92076A   26164.72447711  .00000190  00000+0  12417-3 0  9999
2 22219  71.0576 177.3108 0016442  49.8192 310.4367 14.14097046731956
SL-16 R/B               
1 22220U 92076B   26164.86054529  .00000015  00000+0  31269-4 0  9990
2 22220  71.0003 345.7893 0014594 303.0062 156.9146 14.16871235735451
COSMOS 2221             
1 22236U 92080A   26164.79585815  .00001326  00000+0  11428-3 0  9991
2 22236  82.5030 187.0138 0013023 224.4811 135.5367 14.96525610795161
SL-16 R/B               
1 22285U 92093B   26164.70896753 -.00000290  00000+0 -12389-3 0  9994
2 22285  71.0199 162.6934 0004152 194.2080 165.8927 14.15462839726742
COSMOS 2228             
1 22286U 92094A   26164.81370128  .00001937  00000+0  16319-3 0  9995
2 22286  82.5173 145.2740 0017216 344.0551  16.0127 14.97575658790448
SL-16 R/B               
1 22566U 93016B   26164.83004088  .00000327  00000+0  19204-3 0  9990
2 22566  71.0083  13.2589 0010461 188.1516 171.9438 14.15312059715773
COSMOS 2242             
1 22626U 93024A   26164.77160845  .00001624  00000+0  13901-3 0  9992
2 22626  82.5179 174.8107 0015671 348.2458  11.8396 14.96894345794768
SL-16 R/B               
1 22803U 93059B   26164.74915755  .00000179  00000+0  11222-3 0  9990
2 22803  70.9886 168.5540 0015126  59.9219 300.3403 14.17247570693148
ARIANE 40 R/B           
1 22830U 93061H   26164.78381576  .00000174  00000+0  79493-4 0  9995
2 22830  98.4819 231.7115 0010689   6.5534 353.5788 14.32906609707860
COSMOS 2278             
1 23087U 94023A   26164.85222532  .00000226  00000+0  14273-3 0  9995
2 23087  71.0548 333.9027 0010600 247.0225 112.9780 14.14396892658401
SL-16 R/B               
1 23088U 94023B   26164.64340287  .00000333  00000+0  19644-3 0  9997
2 23088  70.9994 229.3737 0003005 189.5961 170.5105 14.15022922659660
SL-16 R/B               
1 23343U 94074B   26164.85434360  .00000391  00000+0  58854-4 0  9997
2 23343  97.6992 191.7141 0005070 267.7001 265.1192 14.79499790701461
SL-16 R/B               
1 23405U 94077B   26164.65820204 -.00000097  00000+0 -25069-4 0  9990
2 23405  70.9807 150.5867 0002784 330.3606  29.7358 14.15571761629819
